{
    "links": {
        "self": "http://www.neowsapp.com/rest/v1/neo/3384064?api_key=iIulBulltgU6a56xZRHN4H3l9WmuAYTsLGpBGhQ2"
    },
    "id": "3384064",
    "neo_reference_id": "3384064",
    "name": "(2007 RP9)",
    "designation": "2007 RP9",
    "nasa_jpl_url": "http://ssd.jpl.nasa.gov/sbdb.cgi?sstr=3384064",
    "absolute_magnitude_h": 23.0,
    "estimated_diameter": {
        "kilometers": {
            "estimated_diameter_min": 0.0667659413,
            "estimated_diameter_max": 0.1492931834
        },
        "meters": {
            "estimated_diameter_min": 66.7659413495,
            "estimated_diameter_max": 149.2931834393
        },
        "miles": {
            "estimated_diameter_min": 0.0414864197,
            "estimated_diameter_max": 0.0927664547
        },
        "feet": {
            "estimated_diameter_min": 219.0483710172,
            "estimated_diameter_max": 489.807047955
        }
    },
    "is_potentially_hazardous_asteroid": false,
    "close_approach_data": [
        {
            "close_approach_date": "2006-01-27",
            "close_approach_date_full": "2006-Jan-27 00:11",
            "epoch_date_close_approach": 1138320660000,
            "relative_velocity": {
                "kilometers_per_second": "20.1144131267",
                "kilometers_per_hour": "72411.8872560142",
                "miles_per_hour": "44993.9307230495"
            },
            "miss_distance": {
                "astronomical": "0.4986395446",
                "lunar": "193.9707828494",
                "kilometers": "74595413.769930002",
                "miles": "46351440.7717659476"
            },
            "orbiting_body": "Earth"
        },
        {
            "close_approach_date": "2007-09-10",
            "close_approach_date_full": "2007-Sep-10 17:25",
            "epoch_date_close_approach": 1189445100000,
            "relative_velocity": {
                "kilometers_per_second": "15.9624825363",
                "kilometers_per_hour": "57464.9371307045",
                "miles_per_hour": "35706.4771854647"
            },
            "miss_distance": {
                "astronomical": "0.0866567085",
                "lunar": "33.7094596065",
                "kilometers": "12963659.012810895",
                "miles": "8055244.183924551"
            },
            "orbiting_body": "Earth"
        },
        {
            "close_approach_date": "2008-02-03",
            "close_approach_date_full": "2008-Feb-03 09:00",
            "epoch_date_close_approach": 1202029200000,
            "relative_velocity": {
                "kilometers_per_second": "13.6652583113",
                "kilometers_per_hour": "49194.9299208492",
                "miles_per_hour": "30567.8163166521"
            },
            "miss_distance": {
                "astronomical": "0.4332746725",
                "lunar": "168.5438476025",
                "kilometers": "64816968.130947575",
                "miles": "40275396.401623535"
            },
            "orbiting_body": "Earth"
        }
    ],
    "orbital_data": {
        "orbit_id": "11",
        "orbit_determination_date": "2017-04-06 09:06:07",
        "first_observation_date": "2007-09-10",
        "last_observation_date": "2007-09-19",
        "data_arc_in_days": 9,
        "observations_used": 47,
        "orbit_uncertainty": "8",
        "minimum_orbit_intersection": ".0860464",
        "jupiter_tisserand_invariant": "4.279",
        "epoch_osculation": "2454355.5",
        "eccentricity": ".3850176410870869",
        "semi_major_axis": "1.539762767369831",
        "inclination": "26.40716148623625",
        "ascending_node_longitude": "342.3391317707917",
        "orbital_period": "697.8774212850119",
        "perihelion_distance": ".9469269388433739",
        "perihelion_argument": "61.81668891512304",
        "aphelion_distance": "2.132598595896289",
        "perihelion_time": "2454403.543625348747",
        "mean_anomaly": "335.2167005292962",
        "mean_motion": ".5158499028914372",
        "equinox": "J2000",
        "orbit_class": {
            "orbit_class_type": "APO",
            "orbit_class_description": "Near-Earth asteroid orbits which cross the Earth’s orbit similar to that of 1862 Apollo",
            "orbit_class_range": "a (semi-major axis) > 1.0 AU; q (perihelion) < 1.017 AU"
        }
    },
    "is_sentry_object": false
}